GPS BIIA-23 (PRN 18)    
1 22877U 93068A   19104.47472378 -.00000006  00000-0  00000+0 0  9995
2 22877  54.6422  71.1576 0149662  78.9836  68.0220  2.00558827186591
GPS BIIR-2  (PRN 13)    
1 24876U 97035A   19103.66893143 -.00000014  00000-0  00000+0 0  9990
2 24876  55.4620 200.9918 0033764  75.2852 285.1086  2.00564630159171
GPS BIIR-3  (PRN 11)    
1 25933U 99055A   19105.48812000 -.00000065  00000-0  00000+0 0  9990
2 25933  52.0887  48.5484 0163424 107.6904  53.0277  2.00560242143029
GPS BIIR-4  (PRN 20)    
1 26360U 00025A   19105.25014030  .00000062  00000-0  00000+0 0  9992
2 26360  53.3100 127.0614 0041977 136.0190 259.4185  2.00562030138712
GPS BIIR-5  (PRN 28)    
1 26407U 00040A   19105.49007685 -.00000021  00000-0  00000+0 0  9991
2 26407  56.2999 319.0493 0193206 275.8729 266.8104  2.00560545137398
GPS BIIR-6  (PRN 14)    
1 26605U 00071A   19105.37118350 -.00000017  00000-0  00000+0 0  9999
2 26605  55.0359 198.3979 0106639 249.0421 119.4826  2.00561485134999
GPS BIIR-8  (PRN 16)    
1 27663U 03005A   19105.37454913 -.00000020  00000-0  00000+0 0  9996
2 27663  56.3608 318.8254 0106908  31.3136 186.4283  2.00577488118762
GPS BIIR-9  (PRN 21)    
1 27704U 03010A   19102.62390160  .00000000  00000-0  00000+0 0  9993
2 27704  54.3154  70.7234 0249489 276.5849  81.9840  2.00553258117508
GPS BIIR-10 (PRN 22)    
1 28129U 03058A   19102.36221717  .00000045  00000-0  00000+0 0  9998
2 28129  53.1205 129.9791 0075361 280.4367  78.7732  2.00579424112191
GPS BIIR-11 (PRN 19)    
1 28190U 04009A   19105.19445531 -.00000087  00000-0  00000+0 0  9996
2 28190  56.2572  19.6157 0093021  78.5859 163.7853  2.00568884110438
GPS BIIR-12 (PRN 23)    
1 28361U 04023A   19104.54431663 -.00000014  00000-0  00000+0 0  9991
2 28361  54.0481 192.8638 0132501 230.3235 175.4995  2.00571131108505
GPS BIIR-13 (PRN 02)    
1 28474U 04045A   19105.33286667 -.00000015  00000-0  00000+0 0  9991
2 28474  54.6766  70.3400 0191532 259.8286 358.2269  2.00561679105878
GPS BIIRM-1 (PRN 17)    
1 28874U 05038A   19105.12606274 -.00000086  00000-0  00000+0 0  9993
2 28874  56.3831  16.9634 0131088 262.0386 312.6993  2.00557842 99288
GPS BIIRM-2 (PRN 31)    
1 29486U 06042A   19105.44056660 -.00000014  00000-0  00000+0 0  9993
2 29486  55.0284 255.5528 0092213 358.6574   3.7748  2.00572631 92008
GPS BIIRM-3 (PRN 12)    
1 29601U 06052A   19104.38603066 -.00000015  00000-0  00000+0 0  9994
2 29601  56.3409 317.7807 0074285  60.0773 300.6979  2.00564865 90895
GPS BIIRM-4 (PRN 15)    
1 32260U 07047A   19105.19559430 -.00000009  00000-0  00000+0 0  9992
2 32260  53.1712 188.5840 0111040  43.3114 317.5951  2.00563596 84280
GPS BIIRM-5 (PRN 29)    
1 32384U 07062A   19105.39301141 -.00000087  00000-0  00000+0 0  9998
2 32384  56.4659  17.5875 0007008  92.2225 187.8536  2.00552783 83020
GPS BIIRM-6 (PRN 07)    
1 32711U 08012A   19104.60295458 -.00000003  00000-0  00000+0 0  9992
2 32711  54.7675 254.7912 0126308 219.2743 139.7730  2.00572367 81199
GPS BIIRM-8 (PRN 05)    
1 35752U 09043A   19104.74087097  .00000061  00000-0  00000+0 0  9991
2 35752  54.4070 132.4714 0054309  38.4157  85.9468  2.00564173 70785
GPS BIIF-1  (PRN 25)    
1 36585U 10022A   19104.17583245 -.00000011  00000-0  00000+0 0  9994
2 36585  55.6222 314.1344 0082353  49.5741 130.1156  2.00557332 65018
GPS BIIF-2  (PRN 01)    
1 37753U 11036A   19105.54841082 -.00000005  00000-0  00000+0 0  9999
2 37753  55.8741  74.2196 0085185  38.2827 138.7100  2.00565798 56725
GPS BIIF-3  (PRN 24)    
1 38833U 12053A   19104.79070405 -.00000011  00000-0  00000-0 0  9996
2 38833  53.8017 251.0468 0081468  33.4313 327.0466  2.00557538 46992
GPS BIIF-4  (PRN 27)    
1 39166U 13023A   19103.65451230 -.00000081  00000-0  00000+0 0  9993
2 39166  56.0675  13.8182 0068904  24.8188 335.5301  2.00567918 43293
GPS BIIF-5  (PRN 30)    
1 39533U 14008A   19105.14514589 -.00000012  00000-0  00000+0 0  9992
2 39533  53.9348 256.4200 0039179 191.3411 168.5380  2.00571353 37686
GPS BIIF-6  (PRN 06)    
1 39741U 14026A   19104.93296628 -.00000001  00000-0  00000+0 0  9998
2 39741  55.8540  73.7694 0018237 292.7640  67.0313  2.00576594 35961
GPS BIIF-7  (PRN 09)    
1 40105U 14045A   19105.02224582 -.00000013  00000-0  00000+0 0  9999
2 40105  54.5746 193.1138 0010883 102.6292 257.5240  2.00560331 34418
GPS BIIF-8  (PRN 03)    
1 40294U 14068A   19104.88605920  .00000064  00000-0  00000+0 0  9990
2 40294  55.1589 133.9698 0018651  26.4074 333.7555  2.00578811 32634
GPS BIIF-9  (PRN 26)    
1 40534U 15013A   19105.03245760 -.00000016  00000-0  00000+0 0  9996
2 40534  54.5515 312.5079 0037033   5.6750 354.3997  2.00573545 29708
GPS BIIF-10  (PRN 08)   
1 40730U 15033A   19104.69012554 -.00000085  00000-0  00000+0 0  9996
2 40730  55.5932  13.1457 0044682 341.6383  18.2203  2.00557997 27456
GPS BIIF-11  (PRN 10)   
1 41019U 15062A   19105.23878902  .00000066  00000-0  00000+0 0  9995
2 41019  55.1608 133.7695 0045853 207.7240 152.0986  2.00564620 25286
GPS BIIF-12  (PRN 32)   
1 41328U 16007A   19103.34219324 -.00000009  00000-0  00000+0 0  9993
2 41328  54.8195 193.5534 0029844 217.0765 142.7499  2.00551705 23306
